{
  "norad_id": 66407,
  "name": "STARLINK-35686",
  "history": [
    {
      "epoch": "2026-03-28T10:15:37.260576",
      "apogee_km": 476.2859467839562,
      "perigee_km": 474.31407588705406,
      "latitude_deg": -52.82176330325494,
      "longitude_deg": 141.7414006399922,
      "semi_major_axis_km": 6853.437011335504,
      "eccentricity": 0.00014386,
      "inclination_deg": 53.1598,
      "raan_deg": 129.8885,
      "arg_perigee_deg": 74.4729,
      "mean_anomaly_deg": 285.6431,
      "mean_motion_rev_day": 15.30171552
    }
  ]
}